[{"OBJECT_NAME":"STARLINK-5393","OBJECT_ID":"2022-177N","EPOCH":"2025-09-14T06:00:02.000160","MEAN_MOTION":15.62767062,"ECCENTRICITY":0.00020825,"INCLINATION":43.0006,"RA_OF_ASC_NODE":347.4161,"ARG_OF_PERICENTER":276.8218,"MEAN_ANOMALY":318.3956,"EPHEMERIS_TYPE":0,"CLASSIFICATION_TYPE":"U","NORAD_CAT_ID":54832,"ELEMENT_SET_NO":999,"REV_AT_EPOCH":560,"BSTAR":0.010306999,"MEAN_MOTION_DOT":0.01047069,"MEAN_MOTION_DDOT":0},{"OBJECT_NAME":"STARLINK-5391","OBJECT_ID":"2022-177P","EPOCH":"2025-09-14T07:24:01.226592","MEAN_MOTION":15.02539611,"ECCENTRICITY":0.00012459,"INCLINATION":43.0048,"RA_OF_ASC_NODE":11.6816,"ARG_OF_PERICENTER":270.4741,"MEAN_ANOMALY":89.5959,"EPHEMERIS_TYPE":0,"CLASSIFICATION_TYPE":"U","NORAD_CAT_ID":54833,"ELEMENT_SET_NO":999,"REV_AT_EPOCH":15042,"BSTAR":-2.947127e-6,"MEAN_MOTION_DOT":-2.43e-6,"MEAN_MOTION_DDOT":0},{"OBJECT_NAME":"STARLINK-5386","OBJECT_ID":"2022-177Q","EPOCH":"2025-09-14T00:49:55.987392","MEAN_MOTION":15.02546444,"ECCENTRICITY":0.00014599,"INCLINATION":43.0047,"RA_OF_ASC_NODE":13.0676,"ARG_OF_PERICENTER":266.359,"MEAN_ANOMALY":93.7085,"EPHEMERIS_TYPE":0,"CLASSIFICATION_TYPE":"U","NORAD_CAT_ID":54834,"ELEMENT_SET_NO":999,"REV_AT_EPOCH":15039,"BSTAR":0.00013797317,"MEAN_MOTION_DOT":1.661e-5,"MEAN_MOTION_DDOT":0},{"OBJECT_NAME":"STARLINK-5389","OBJECT_ID":"2022-177R","EPOCH":"2025-09-13T15:21:56.450016","MEAN_MOTION":15.02540461,"ECCENTRICITY":0.00012979,"INCLINATION":43.005,"RA_OF_ASC_NODE":15.2699,"ARG_OF_PERICENTER":278.3799,"MEAN_ANOMALY":81.6897,"EPHEMERIS_TYPE":0,"CLASSIFICATION_TYPE":"U","NORAD_CAT_ID":54835,"ELEMENT_SET_NO":999,"REV_AT_EPOCH":15032,"BSTAR":9.6242747e-5,"MEAN_MOTION_DOT":1.097e-5,"MEAN_MOTION_DDOT":0},{"OBJECT_NAME":"STARLINK-5384","OBJECT_ID":"2022-177S","EPOCH":"2025-09-14T00:45:07.673184","MEAN_MOTION":15.0253487,"ECCENTRICITY":0.00013374,"INCLINATION":43.0041,"RA_OF_ASC_NODE":13.0371,"ARG_OF_PERICENTER":266.5361,"MEAN_ANOMALY":93.5328,"EPHEMERIS_TYPE":0,"CLASSIFICATION_TYPE":"U","NORAD_CAT_ID":54836,"ELEMENT_SET_NO":999,"REV_AT_EPOCH":15039,"BSTAR":2.4990939e-5,"MEAN_MOTION_DOT":1.34e-6,"MEAN_MOTION_DDOT":0},{"OBJECT_NAME":"STARLINK-5369","OBJECT_ID":"2022-177T","EPOCH":"2025-09-14T00:46:43.686912","MEAN_MOTION":15.0253773,"ECCENTRICITY":0.00012552,"INCLINATION":43.0051,"RA_OF_ASC_NODE":13.0502,"ARG_OF_PERICENTER":270.7697,"MEAN_ANOMALY":89.3001,"EPHEMERIS_TYPE":0,"CLASSIFICATION_TYPE":"U","NORAD_CAT_ID":54837,"ELEMENT_SET_NO":999,"REV_AT_EPOCH":15038,"BSTAR":-2.2123043e-5,"MEAN_MOTION_DOT":-5.02e-6,"MEAN_MOTION_DDOT":0},{"OBJECT_NAME":"STARLINK-5372","OBJECT_ID":"2022-177U","EPOCH":"2025-09-14T00:35:32.098848","MEAN_MOTION":15.02536129,"ECCENTRICITY":0.00013515,"INCLINATION":43.0054,"RA_OF_ASC_NODE":12.9915,"ARG_OF_PERICENTER":273.6873,"MEAN_ANOMALY":86.3815,"EPHEMERIS_TYPE":0,"CLASSIFICATION_TYPE":"U","NORAD_CAT_ID":54838,"ELEMENT_SET_NO":999,"REV_AT_EPOCH":15038,"BSTAR":2.9456791e-5,"MEAN_MOTION_DOT":1.94e-6,"MEAN_MOTION_DDOT":0},{"OBJECT_NAME":"STARLINK-5368","OBJECT_ID":"2022-177W","EPOCH":"2025-09-14T00:22:45.033600","MEAN_MOTION":15.02535029,"ECCENTRICITY":0.00012411,"INCLINATION":43.0047,"RA_OF_ASC_NODE":12.9255,"ARG_OF_PERICENTER":270.7437,"MEAN_ANOMALY":89.3263,"EPHEMERIS_TYPE":0,"CLASSIFICATION_TYPE":"U","NORAD_CAT_ID":54840,"ELEMENT_SET_NO":999,"REV_AT_EPOCH":15038,"BSTAR":4.9408732e-5,"MEAN_MOTION_DOT":4.64e-6,"MEAN_MOTION_DDOT":0},{"OBJECT_NAME":"STARLINK-4659","OBJECT_ID":"2022-177X","EPOCH":"2025-09-14T00:40:20.051904","MEAN_MOTION":15.02533681,"ECCENTRICITY":0.00013385,"INCLINATION":43.004,"RA_OF_ASC_NODE":13.0175,"ARG_OF_PERICENTER":268.1324,"MEAN_ANOMALY":91.9366,"EPHEMERIS_TYPE":0,"CLASSIFICATION_TYPE":"U","NORAD_CAT_ID":54841,"ELEMENT_SET_NO":999,"REV_AT_EPOCH":15038,"BSTAR":4.1778954e-5,"MEAN_MOTION_DOT":3.61e-6,"MEAN_MOTION_DDOT":0},{"OBJECT_NAME":"STARLINK-5387","OBJECT_ID":"2022-177Y","EPOCH":"2025-09-14T00:13:09.527520","MEAN_MOTION":15.02538535,"ECCENTRICITY":0.00012653,"INCLINATION":43.0056,"RA_OF_ASC_NODE":12.8764,"ARG_OF_PERICENTER":268.6108,"MEAN_ANOMALY":91.4589,"EPHEMERIS_TYPE":0,"CLASSIFICATION_TYPE":"U","NORAD_CAT_ID":54842,"ELEMENT_SET_NO":999,"REV_AT_EPOCH":15038,"BSTAR":5.9988537e-5,"MEAN_MOTION_DOT":6.07e-6,"MEAN_MOTION_DDOT":0},{"OBJECT_NAME":"STARLINK-5304","OBJECT_ID":"2022-177Z","EPOCH":"2025-09-14T00:30:44.212320","MEAN_MOTION":15.02538908,"ECCENTRICITY":0.0001409,"INCLINATION":43.0057,"RA_OF_ASC_NODE":12.9688,"ARG_OF_PERICENTER":275.3173,"MEAN_ANOMALY":84.7508,"EPHEMERIS_TYPE":0,"CLASSIFICATION_TYPE":"U","NORAD_CAT_ID":54843,"ELEMENT_SET_NO":999,"REV_AT_EPOCH":15038,"BSTAR":7.8091412e-5,"MEAN_MOTION_DOT":8.51e-6,"MEAN_MOTION_DDOT":0},{"OBJECT_NAME":"STARLINK-5388","OBJECT_ID":"2022-177AA","EPOCH":"2025-09-14T00:06:46.077408","MEAN_MOTION":15.02534199,"ECCENTRICITY":0.0001452,"INCLINATION":43.0062,"RA_OF_ASC_NODE":12.8225,"ARG_OF_PERICENTER":267.3002,"MEAN_ANOMALY":92.7675,"EPHEMERIS_TYPE":0,"CLASSIFICATION_TYPE":"U","NORAD_CAT_ID":54844,"ELEMENT_SET_NO":999,"REV_AT_EPOCH":15038,"BSTAR":7.669982e-6,"MEAN_MOTION_DOT":-1.0e-6,"MEAN_MOTION_DDOT":0},{"OBJECT_NAME":"STARLINK-5082","OBJECT_ID":"2022-177AB","EPOCH":"2025-09-14T00:17:57.302592","MEAN_MOTION":15.02536522,"ECCENTRICITY":0.00013277,"INCLINATION":43.0043,"RA_OF_ASC_NODE":12.9002,"ARG_OF_PERICENTER":272.7466,"MEAN_ANOMALY":87.3224,"EPHEMERIS_TYPE":0,"CLASSIFICATION_TYPE":"U","NORAD_CAT_ID":54845,"ELEMENT_SET_NO":999,"REV_AT_EPOCH":15038,"BSTAR":-3.76492e-7,"MEAN_MOTION_DOT":-2.09e-6,"MEAN_MOTION_DDOT":0},{"OBJECT_NAME":"STARLINK-5360","OBJECT_ID":"2022-177AC","EPOCH":"2025-09-14T00:08:22.179264","MEAN_MOTION":15.02534405,"ECCENTRICITY":0.00013556,"INCLINATION":43.0055,"RA_OF_ASC_NODE":12.8531,"ARG_OF_PERICENTER":266.3139,"MEAN_ANOMALY":93.7548,"EPHEMERIS_TYPE":0,"CLASSIFICATION_TYPE":"U","NORAD_CAT_ID":54846,"ELEMENT_SET_NO":999,"REV_AT_EPOCH":15038,"BSTAR":1.3237618e-5,"MEAN_MOTION_DOT":-2.5e-7,"MEAN_MOTION_DDOT":0},{"OBJECT_NAME":"STARLINK-5061","OBJECT_ID":"2022-177AD","EPOCH":"2025-09-14T07:10:23.165472","MEAN_MOTION":15.02530864,"ECCENTRICITY":0.00012241,"INCLINATION":43.0053,"RA_OF_ASC_NODE":345.5984,"ARG_OF_PERICENTER":265.0577,"MEAN_ANOMALY":95.0126,"EPHEMERIS_TYPE":0,"CLASSIFICATION_TYPE":"U","NORAD_CAT_ID":54847,"ELEMENT_SET_NO":999,"REV_AT_EPOCH":15072,"BSTAR":-1.5395099e-5,"MEAN_MOTION_DOT":-4.12e-6,"MEAN_MOTION_DDOT":0},{"OBJECT_NAME":"STARLINK-5432","OBJECT_ID":"2022-177AE","EPOCH":"2025-09-14T06:31:49.166112","MEAN_MOTION":15.02535682,"ECCENTRICITY":0.00013736,"INCLINATION":43.0063,"RA_OF_ASC_NODE":359.2602,"ARG_OF_PERICENTER":279.0179,"MEAN_ANOMALY":81.0508,"EPHEMERIS_TYPE":0,"CLASSIFICATION_TYPE":"U","NORAD_CAT_ID":54848,"ELEMENT_SET_NO":999,"REV_AT_EPOCH":15056,"BSTAR":3.2356117e-5,"MEAN_MOTION_DOT":2.33e-6,"MEAN_MOTION_DDOT":0}]
