STARLINK-5393           
1 54832U 22177N   25257.25002315  .01047069  00000+0  10307-1 0  9998
2 54832  43.0006 347.4161 0002082 276.8218 318.3956 15.62767062  5607
STARLINK-5391           
1 54833U 22177P   25257.30834753 -.00000243  00000+0 -29471-5 0  9994
2 54833  43.0048  11.6816 0001245 270.4741  89.5959 15.02539611150424
STARLINK-5386           
1 54834U 22177Q   25257.03467578  .00001661  00000+0  13797-3 0  9997
2 54834  43.0047  13.0676 0001459 266.3590  93.7085 15.02546444150392
STARLINK-5389           
1 54835U 22177R   25256.64023669  .00001097  00000+0  96243-4 0  9994
2 54835  43.0050  15.2699 0001297 278.3799  81.6897 15.02540461150323
STARLINK-5384           
1 54836U 22177S   25257.03133881  .00000134  00000+0  24991-4 0  9999
2 54836  43.0041  13.0371 0001337 266.5361  93.5328 15.02534870150391
STARLINK-5369           
1 54837U 22177T   25257.03245008 -.00000502  00000+0 -22123-4 0  9991
2 54837  43.0051  13.0502 0001255 270.7697  89.3001 15.02537730150385
STARLINK-5372           
1 54838U 22177U   25257.02467707  .00000194  00000+0  29457-4 0  9995
2 54838  43.0054  12.9915 0001351 273.6873  86.3815 15.02536129150381
STARLINK-5368           
1 54840U 22177W   25257.01579900  .00000464  00000+0  49409-4 0  9995
2 54840  43.0047  12.9255 0001241 270.7437  89.3263 15.02535029150383
STARLINK-4659           
1 54841U 22177X   25257.02800986  .00000361  00000+0  41779-4 0  9996
2 54841  43.0040  13.0175 0001338 268.1324  91.9366 15.02533681150388
STARLINK-5387           
1 54842U 22177Y   25257.00913805  .00000607  00000+0  59989-4 0  9995
2 54842  43.0056  12.8764 0001265 268.6108  91.4589 15.02538535150386
STARLINK-5304           
1 54843U 22177Z   25257.02134505  .00000851  00000+0  78091-4 0  9996
2 54843  43.0057  12.9688 0001409 275.3173  84.7508 15.02538908150381
STARLINK-5388           
1 54844U 22177AA  25257.00469997 -.00000100  00000+0  76700-5 0  9995
2 54844  43.0062  12.8225 0001452 267.3002  92.7675 15.02534199150386
STARLINK-5082           
1 54845U 22177AB  25257.01246878 -.00000209  00000+0 -37649-6 0  9999
2 54845  43.0043  12.9002 0001327 272.7466  87.3224 15.02536522150387
STARLINK-5360           
1 54846U 22177AC  25257.00581226 -.00000025  00000+0  13238-4 0  9999
2 54846  43.0055  12.8531 0001355 266.3139  93.7548 15.02534405150382
STARLINK-5061           
1 54847U 22177AD  25257.29887923 -.00000412  00000+0 -15395-4 0  9991
2 54847  43.0053 345.5984 0001224 265.0577  95.0126 15.02530864150726
STARLINK-5432           
1 54848U 22177AE  25257.27209683  .00000233  00000+0  32356-4 0  9996
2 54848  43.0063 359.2602 0001373 279.0179  81.0508 15.02535682150569
